STARLINK-31643          
1 59388U 24062Q   26011.82950547  .00005335  00000+0  19211-3 0  9999
2 59388  53.1577 159.9297 0001170  86.0381 274.0754 15.30200336100968
STARLINK-31647          
1 59389U 24062R   26011.71048282  .00000749  00000+0  37403-4 0  9990
2 59389  53.1598 160.6459 0000847 100.2387 259.8710 15.30195070100945
STARLINK-31649          
1 59390U 24062S   26011.68830591  .00000139  00000+0  16811-4 0  9993
2 59390  53.1581 160.4697 0000847  75.7108 284.3987 15.30204830100942
STARLINK-31644          
1 59391U 24062T   26011.73000175 -.00003937  00000+0 -12083-3 0  9994
2 59391  53.1608 162.8649 0001095  78.5982 281.5142 15.30214006100918
STARLINK-31626          
1 59392U 24062U   26011.67247759  .00001869  00000+0  75213-4 0  9994
2 59392  53.1605 160.3728 0001175  84.9553 275.1582 15.30196410100949
STARLINK-31443          
1 59393U 24062V   26011.75849979  .00002417  00000+0  96018-4 0  9992
2 59393  53.1601 147.2365 0001213  87.7147 272.3992 15.29366203101133
STARLINK-31607          
1 59394U 24062W   26011.80943507  .00001443  00000+0  60826-4 0  9997
2 59394  53.1595 159.8052 0001066  82.5806 277.5316 15.30197720100953
STARLINK-31608          
1 59397U 24062X   26011.77367189  .00000500  00000+0  29001-4 0  9995
2 59397  53.1599 160.2908 0001070  51.8465 308.2632 15.30196987100903
STARLINK-31534          
1 59398U 24064A   26011.69580735  .00000287  00000+0  19955-4 0  9992
2 59398  43.0021  17.6758 0000760 300.9533  59.1244 15.27583662100456
STARLINK-31544          
1 59399U 24064B   26011.42027381 -.00000178  00000+0  30749-5 0  9992
2 59399  43.0043  19.9053 0001221 270.3400  89.7312 15.27592022100466
STARLINK-31545          
1 59400U 24064C   26011.38043766  .00000028  00000+0  10534-4 0  9997
2 59400  43.0013  19.6104 0001232 274.1743  85.8968 15.27595993100468
STARLINK-31507          
1 59401U 24064D   26011.38686080  .00003094  00000+0  12189-3 0  9993
2 59401  43.0030  19.6486 0001198 274.1744  85.8971 15.27582464100400
STARLINK-31543          
1 59402U 24064E   26012.00104062  .00002076  00000+0  84960-4 0  9995
2 59402  43.0052  16.5256 0001356 271.8908  88.1788 15.27578699100551
STARLINK-31366          
1 59403U 24064F   26011.07147161  .00003542  00000+0  13810-3 0  9993
2 59403  43.0073  21.5809 0001458 265.9383  94.1302 15.27603351100417
STARLINK-31374          
1 59404U 24064G   26011.90090393  .00001180  00000+0  52374-4 0  9995
2 59404  43.0058 325.8231 0001697 280.9643  79.1018 15.27589274100875
STARLINK-31400          
1 59405U 24064H   26011.69965952 -.00000043  00000+0  79648-5 0  9996
2 59405  43.0022  17.7030 0001187 275.1339  84.9377 15.27583187100513
STARLINK-31391          
1 59406U 24064J   26011.70351660 -.00001536  00000+0 -46337-4 0  9991
2 59406  43.0016  17.7315 0000821 293.8457  66.2308 15.27574797100519
STARLINK-31387          
1 59407U 24064K   26012.00490408  .00002983  00000+0  11790-3 0  9999
2 59407  43.0012  16.5525 0000556 232.7116 127.3685 15.27575199100553
STARLINK-31396          
1 59409U 24064M   26011.97680335  .00004140  00000+0  15995-3 0  9994
2 59409  43.0051   5.9492 0001365 281.2172  78.8526 15.27568982100616
STARLINK-31412          
1 59410U 24064N   26011.98305037  .00001264  00000+0  55454-4 0  9999
2 59410  43.0044  16.3860 0000684 266.0122  94.0651 15.27575913100558
STARLINK-31483          
1 59411U 24064P   26011.73307064  .00002512  00000+0  10077-3 0  9993
2 59411  43.0039  17.9507 0001031 267.1027  92.9707 15.27577869100518
STARLINK-31568          
1 59412U 24064Q   26011.34331543 -.00003227  00000+0 -10771-3 0  9997
2 59412  43.0037  20.1871 0001254 268.1715  91.8993 15.27599141100454
STARLINK-31615          
1 59413U 24064R   26011.33657466  .00001297  00000+0  56648-4 0  9999
2 59413  43.0038  13.1937 0001248 261.0370  99.0340 15.27581975100534
STARLINK-31457          
1 59414U 24064S   26011.27376895 -.00000026  00000+0  85691-5 0  9998
2 59414  43.0004  13.5697 0001280 270.9989  89.0716 15.27570786100529
STARLINK-31398          
1 59415U 24064T   26011.32532280  .00002035  00000+0  83427-4 0  9992
2 59415  43.0037  20.0443 0000716 276.3753  83.7018 15.27591484100456
STARLINK-31399          
1 59416U 24064U   26011.71122698  .00000877  00000+0  41396-4 0  9995
2 59416  43.0021  17.7818 0001733 282.0021  78.0637 15.27588142100519
STARLINK-31401          
1 59417U 24064V   26011.26733793  .00002200  00000+0  89456-4 0  9991
2 59417  43.0065  13.5502 0002108 279.9751  80.0863 15.27583399100270
STARLINK-31414          
1 59418U 24064W   26011.99075491  .00003704  00000+0  14403-3 0  9995
2 59418  43.0040  16.4441 0001159 272.4990  87.5729 15.27581670100550
STARLINK-31415          
1 59419U 24064X   26011.36257338  .00000465  00000+0  26404-4 0  9995
2 59419  43.0013  20.3302 0001149 265.2190  94.8530 15.27609732100452
STARLINK-31466          
1 59420U 24064Y   26011.48950706  .00000552  00000+0  29564-4 0  9996
2 59420  43.0024  19.5613 0000944 253.3758 106.6991 15.27597717100475
STARLINK-11087 [DTC]    
1 59421U 24065A   26011.27522783  .00002852  00000+0  28376-4 0  9990
2 59421  53.1599  17.0560 0001690  78.6529 281.4679 15.69725905102499
STARLINK-11090 [DTC]    
1 59422U 24065B   26011.38784188  .00001958  00000+0  21010-4 0  9996
2 59422  53.1599  16.3280 0001463  70.7559 289.3617 15.69726097102532
STARLINK-11093 [DTC]    
1 59423U 24065C   26011.26540764  .00004328  00000+0  40542-4 0  9999
2 59423  53.1586  16.9893 0001313  86.9437 273.1731 15.69725290102502
STARLINK-11083 [DTC]    
1 59424U 24065D   26011.27031271  .00003625  00000+0  34740-4 0  9991
2 59424  53.1582  17.0219 0001158  74.6737 285.4409 15.69730250102451
STARLINK-11085 [DTC]    
1 59425U 24065E   26011.70130234 -.00000658  00000+0 -56426-6 0  9991
2 59425  53.1599  14.7259 0002017  76.7775 283.3468 15.69706296102521
STARLINK-11089 [DTC]    
1 59426U 24065F   26011.98051438 -.00000277  00000+0  25718-5 0  9995
2 59426  53.1590  13.6491 0001293  90.5361 269.5805 15.69700150102613
STARLINK-31757          
1 59427U 24065G   26012.00003472  .00029978  00000+0  10210-2 0  9991
2 59427  53.1569 184.9640 0001137  86.5066 162.1129 15.30173221  5825
STARLINK-31773          
1 59429U 24065J   26011.87116590  .00004946  00000+0  17897-3 0  9990
2 59429  53.1598 187.4840 0001119  96.0961 264.0168 15.30203707100205
STARLINK-31772          
1 59430U 24065K   26011.74316832  .00000875  00000+0  41660-4 0  9992
2 59430  53.1609 185.9716 0001245  86.0997 274.0146 15.30194251100214
STARLINK-31613          
1 59431U 24065L   26011.88645952  .00001213  00000+0  53078-4 0  9999
2 59431  53.1602 185.4440 0001163  77.0970 283.0161 15.30198958100234
STARLINK-31780          
1 59432U 24065M   26011.76322077  .00000930  00000+0  43538-4 0  9992
2 59432  53.1612 186.0960 0001221  87.0563 273.0577 15.30197304100216
STARLINK-31740          
1 59433U 24065N   26011.86905503  .00000531  00000+0  30063-4 0  9991
2 59433  53.1600 187.4722 0001282  88.9499 271.1648 15.30191342100203
STARLINK-31580          
1 59434U 24065P   26011.87749787  .00000809  00000+0  39455-4 0  9995
2 59434  53.1602 187.5231 0001408  96.2217 263.8945 15.30190900100209
STARLINK-31696          
1 59435U 24065Q   26011.88329366  .00001720  00000+0  70173-4 0  9999
2 59435  53.1600 185.4253 0001195  81.3248 278.7889 15.30199720100235
STARLINK-31700          
1 59436U 24065R   26011.87697738 -.00000969  00000+0 -20612-4 0  9999
2 59436  53.1601 185.3842 0001213  73.1379 286.9755 15.30182405100230
STARLINK-31706          
1 59437U 24065S   26011.87010907  .00000289  00000+0  21891-4 0  9990
2 59437  53.1598 187.4831 0000968  90.7098 269.4013 15.30193540100208
STARLINK-31711          
1 59438U 24065T   26011.74949685 -.00000313  00000+0  15446-5 0  9990
2 59438  53.1603 186.0100 0001108  82.1133 277.9994 15.30204743100213
STARLINK-31708          
1 59439U 24065U   26011.87063216  .00000924  00000+0  43327-4 0  9997
2 59439  53.1608 185.3440 0001226  86.9962 273.1179 15.30196222100238
STARLINK-31693          
1 59441U 24065W   26011.70001564  .00001573  00000+0  65232-4 0  9990
2 59441  53.1596 186.4089 0001082  77.2786 282.8336 15.30194645100201
STARLINK-31622          
1 59456U 24068B   26011.43325237  .00004551  00000+0  17470-3 0  9994
2 59456  43.0031 358.0875 0001248 262.0965  97.9746 15.27598674 99760
STARLINK-31319          
1 59457U 24068C   26011.99781069  .00004952  00000+0  18933-3 0  9995
2 59457  43.0040 351.1241 0001096 260.7430  99.3298 15.27584560 99896
STARLINK-31625          
1 59458U 24068D   26011.94607198  .00002934  00000+0  11609-3 0  9992
2 59458  43.0038 355.0484 0001176 229.0291 131.0459 15.27581357 99847
STARLINK-31631          
1 59459U 24068E   26011.98367594  .00000873  00000+0  41236-4 0  9990
2 59459  43.0035 351.0189 0000847 281.5465  78.5291 15.27580076 99894
STARLINK-31620          
1 59460U 24068F   26011.94013540  .00002299  00000+0  93041-4 0  9992
2 59460  43.0031 351.5461 0001100 259.9648 100.1079 15.27573526 99882
STARLINK-31511          
1 59462U 24068H   26011.95250105  .00005599  00000+0  21280-3 0  9996
2 59462  43.0012 355.1001 0000772 249.2358 110.8411 15.27586021 99845
STARLINK-31364          
1 59463U 24068J   26011.66445629  .00001579  00000+0  66895-4 0  9998
2 59463  43.0029 352.9243 0000675 297.5890  62.4893 15.27576321 99844
STARLINK-31597          
1 59464U 24068K   26011.94221769  .00000486  00000+0  27188-4 0  9995
2 59464  43.0047 355.0206 0001551 252.0517 108.0166 15.27585988 99797
STARLINK-31621          
1 59465U 24068L   26011.42556018  .00000870  00000+0  41143-4 0  9991
2 59465  43.0029 358.0363 0000863 285.2427  74.8329 15.27574297 99767
STARLINK-31462          
1 59466U 24068M   26011.67296011  .00004290  00000+0  16533-3 0  9997
2 59466  43.0041 356.4274 0001387 274.5800  85.4893 15.27578071 99806
